{
    "links": {
        "self": "http://www.neowsapp.com/rest/v1/neo/3682530?api_key=iIulBulltgU6a56xZRHN4H3l9WmuAYTsLGpBGhQ2"
    },
    "id": "3682530",
    "neo_reference_id": "3682530",
    "name": "(2014 QS168)",
    "designation": "2014 QS168",
    "nasa_jpl_url": "http://ssd.jpl.nasa.gov/sbdb.cgi?sstr=3682530",
    "absolute_magnitude_h": 23.2,
    "estimated_diameter": {
        "kilometers": {
            "estimated_diameter_min": 0.0608912622,
            "estimated_diameter_max": 0.1361570015
        },
        "meters": {
            "estimated_diameter_min": 60.8912622106,
            "estimated_diameter_max": 136.1570015386
        },
        "miles": {
            "estimated_diameter_min": 0.0378360645,
            "estimated_diameter_max": 0.0846040122
        },
        "feet": {
            "estimated_diameter_min": 199.7744887109,
            "estimated_diameter_max": 446.7093369279
        }
    },
    "is_potentially_hazardous_asteroid": false,
    "close_approach_data": [
        {
            "close_approach_date": "2014-08-07",
            "close_approach_date_full": "2014-Aug-07 20:50",
            "epoch_date_close_approach": 1407444600000,
            "relative_velocity": {
                "kilometers_per_second": "7.0783649343",
                "kilometers_per_hour": "25482.1137633241",
                "miles_per_hour": "15833.5945214388"
            },
            "miss_distance": {
                "astronomical": "0.0240903875",
                "lunar": "9.3711607375",
                "kilometers": "3603870.657474625",
                "miles": "2239341.386914825"
            },
            "orbiting_body": "Earth"
        }
    ],
    "orbital_data": {
        "orbit_id": "9",
        "orbit_determination_date": "2017-04-06 08:39:13",
        "first_observation_date": "2014-08-23",
        "last_observation_date": "2014-09-15",
        "data_arc_in_days": 23,
        "observations_used": 31,
        "orbit_uncertainty": "8",
        "minimum_orbit_intersection": ".0240006",
        "jupiter_tisserand_invariant": "3.960",
        "epoch_osculation": "2456898.5",
        "eccentricity": ".4276444313401597",
        "semi_major_axis": "1.790489198576875",
        "inclination": "6.313690040812332",
        "ascending_node_longitude": "322.4358536467301",
        "orbital_period": "875.0965768008573",
        "perihelion_distance": "1.024796463430769",
        "perihelion_argument": "339.1354622216398",
        "aphelion_distance": "2.556181933722981",
        "perihelion_time": "2456865.430477105115",
        "mean_anomaly": "13.60424501451088",
        "mean_motion": ".4113831656342132",
        "equinox": "J2000",
        "orbit_class": {
            "orbit_class_type": "AMO",
            "orbit_class_description": "Near-Earth asteroid orbits similar to that of 1221 Amor",
            "orbit_class_range": "1.017 AU < q (perihelion) < 1.3 AU"
        }
    },
    "is_sentry_object": false
}